[{"OBJECT_NAME":"HULIANWANG DIGUI-68","OBJECT_ID":"2025-178A","EPOCH":"2026-03-09T22:27:05.415840","MEAN_MOTION":13.24423995,"ECCENTRICITY":0.00020245,"INCLINATION":86.4949,"RA_OF_ASC_NODE":47.0115,"ARG_OF_PERICENTER":77.8923,"MEAN_ANOMALY":282.2438,"EPHEMERIS_TYPE":0,"CLASSIFICATION_TYPE":"U","NORAD_CAT_ID":65228,"ELEMENT_SET_NO":999,"REV_AT_EPOCH":2717,"BSTAR":3.8440992e-5,"MEAN_MOTION_DOT":3.1e-7,"MEAN_MOTION_DDOT":0},{"OBJECT_NAME":"SL-14 DEB","OBJECT_ID":"1991-068AR","EPOCH":"2026-03-08T13:04:55.602336","MEAN_MOTION":12.80459043,"ECCENTRICITY":0.03818036,"INCLINATION":82.6175,"RA_OF_ASC_NODE":90.3089,"ARG_OF_PERICENTER":47.207,"MEAN_ANOMALY":103.7454,"EPHEMERIS_TYPE":0,"CLASSIFICATION_TYPE":"U","NORAD_CAT_ID":27804,"ELEMENT_SET_NO":999,"REV_AT_EPOCH":60552,"BSTAR":0.0099849717,"MEAN_MOTION_DOT":3.121e-5,"MEAN_MOTION_DDOT":0}]
